[{"OBJECT_NAME":"STARLINK-32725","OBJECT_ID":"2025-003U","EPOCH":"2026-03-09T00:26:27.849696","MEAN_MOTION":15.27605123,"ECCENTRICITY":0.00011864,"INCLINATION":42.9993,"RA_OF_ASC_NODE":292.3326,"ARG_OF_PERICENTER":247.747,"MEAN_ANOMALY":112.3256,"EPHEMERIS_TYPE":0,"CLASSIFICATION_TYPE":"U","NORAD_CAT_ID":62505,"ELEMENT_SET_NO":999,"REV_AT_EPOCH":6645,"BSTAR":0.0010130603,"MEAN_MOTION_DOT":0.00027741,"MEAN_MOTION_DDOT":0},{"OBJECT_NAME":"KUIPER-00183","OBJECT_ID":"2025-301F","EPOCH":"2026-03-09T22:00:01.999584","MEAN_MOTION":15.28555387,"ECCENTRICITY":0.00143222,"INCLINATION":51.8667,"RA_OF_ASC_NODE":65.0366,"ARG_OF_PERICENTER":58.1585,"MEAN_ANOMALY":99.3056,"EPHEMERIS_TYPE":0,"CLASSIFICATION_TYPE":"U","NORAD_CAT_ID":67138,"ELEMENT_SET_NO":999,"REV_AT_EPOCH":583,"BSTAR":-0.054814766,"MEAN_MOTION_DOT":-0.01408357,"MEAN_MOTION_DDOT":0}]
